#aV2016  4  3  0  0  0.00000000     288 DD+AD WGS84 FIT  NGA
## 1891      0.00000000   300.00000000 57481 0.0000000000000
+   31     1  2  3  5  6  7  8  9 10 11 12 13 14 15 16 17 18
+         19 20 21 22 23 24 25 26 27 28 29 30 31 32  0  0  0
+          0  0  0  0  0  0  0  0  0  0  0  0  0  0  0  0  0
+          0  0  0  0  0  0  0  0  0  0  0  0  0  0  0  0  0
+          0  0  0  0  0  0  0  0  0  0  0  0  0  0  0  0  0
++         2  2  2  2  2  2  2  2  2  2  2  2  2  2  2  2  2
++         2  2  2  2  2  2  2  2  2  2  2  2  2  2  0  0  0
++         0  0  0  0  0  0  0  0  0  0  0  0  0  0  0  0  0
++         0  0  0  0  0  0  0  0  0  0  0  0  0  0  0  0  0
++         0  0  0  0  0  0  0  0  0  0  0  0  0  0  0  0  0
%c cc cc ccc ccc cccc cccc cccc cccc ccccc ccccc ccccc ccccc
%c cc cc ccc ccc cccc cccc cccc cccc ccccc ccccc ccccc ccccc
%f  0.0000000  0.000000000  0.00000000000  0.000000000000000
%f  0.0000000  0.000000000  0.00000000000  0.000000000000000
%i    0    0    0    0      0      0      0      0         0
%i    0    0    0    0      0      0      0      0         0
/*      NGA, ST. LOUIS,MO.                                  
/*   EPHEMERIS COMPUTED FROM 2 DAYS OF DATA                 
/*   EPOCHA v2.4 SMOOTHER                                   
/*   G1762 IERS2010 SATAF SATAPC                            
*  2016  4  3 13 15  0.00000000
P  1 -13683.861810   9942.997692  20346.104962     16.234203                    
V  1  -2293.416822 -25974.951712  11332.323054      0.011285                    
P  2  13960.178288  14151.445019 -17373.757670    598.376993                    
V  2    219.196228  22894.813548  17970.562742     -0.005394                    
P  3 -23005.276257  13105.928838   2192.419318    -43.436276                    
V  3    787.357943  -3889.716162  31561.653060     -0.042147                    
P  5  19627.024771   2413.401501 -17890.953044   -132.080934                    
V  5 -17835.088971  13908.265383 -17560.859781      0.032200                    
P  6   6468.315253  24686.300078  -7351.992976    170.188097                    
V  6  -2058.687597   9477.317199  29953.814014      0.057234                    
P  7  -6307.375211  23464.781452 -10106.755328    462.034489                    
V  7  -3045.375942 -13069.298183 -28464.287041     -0.019629                    
P  8 -24161.782564  -4025.958842  10362.091668    -29.956065                    
V  8 -10609.015734  -7992.447142 -27962.041005     -0.015095                    
P  9  -8114.206095  13070.533210 -21669.307926    102.639680                    
V  9 -24518.979114 -12433.462242   1668.992768      0.074822                    
P 10    986.476736 -17411.982101  20030.314798     11.423590                    
V 10  21889.508069 -12975.555794 -12426.447695     -0.098045                    
P 11 -15825.141710   4444.029107  20316.153335   -639.320641                    
V 11 -10734.549851 -25160.864320  -2736.530651     -0.015193                    
P 12  23944.954813  -9753.118730   5419.085220    374.930654                    
V 12  -5107.377257   5277.026655  31561.597131      0.014332                    
P 13  23197.349339  12222.305413   3788.079393     -8.250841                    
V 13   2766.365079   4854.562281 -31572.060146     -0.027502                    
P 14  -9552.284359 -19015.308497  16248.127534     -6.262490                    
V 14  18019.518026   9040.132197  21354.045848     -0.021721                    
P 15  23356.308009   -199.339709  12833.315345   -304.754693                    
V 15  13940.562347   9140.510717 -24640.501432     -0.017636                    
P 16 -18808.808996  -3561.947719 -18680.265783    -27.308921                    
V 16  20012.327511 -11964.682190 -17580.440690      0.028358                    
P 17   7953.178027  18401.996839  17847.374000   -202.759260                    
V 17 -19638.668969  -9767.103769  18995.164415     -0.003952                    
P 18  11824.823608 -20109.839847  12980.758081    500.615187                    
V 18  14814.742263  -6426.325690 -24729.772220      0.041389                    
P 19  16722.532445  18053.199504   9242.522917   -525.539885                    
V 19 -11654.113554  -4347.856639  29231.422121     -0.001162                    
P 20  23027.139390 -11701.122266  -6451.329341    403.562685                    
V 20  -4118.093866   7796.989800 -29490.577439      0.024810                    
P 21   2599.123599 -25355.077915  -6207.596812   -517.584822                    
V 21   4500.605463   8609.023491 -29989.830879     -0.015498                    
P 22 -22640.890735   2821.975569  13990.838757    369.662400                    
V 22  12683.027187 -12232.706636  23230.894946     -0.071117                    
P 23 -18583.411671   5299.289420 -18225.690926   -167.688921                    
V 23 -20170.485308 -11963.202575  16484.682218     -0.017589                    
P 24  14645.966724  -6510.335319  21094.485678    -14.933332                    
V 24   2762.980300  26856.972994   6545.687242     -0.005876                    
P 25  19362.799601 -17133.663561  -5729.282404   -146.166216                    
V 25   7256.221592  -1947.126331  31168.884639     -0.070893                    
P 26 -10271.046660 -11385.975095 -21692.464014   -316.954058                    
V 26  22865.322501 -15341.206271  -2727.092970     -0.139785                    
P 27 -23886.124849 -11814.579626    273.739174     78.447021                    
V 27    730.259823  -2286.170714 -31861.282934      0.038342                    
P 28  -3184.745655  17177.526684  20620.595176    513.618675                    
V 28 -22005.308366  11298.438521 -13262.980170      0.026926                    
P 29  11549.138754 -10186.418655 -21618.912243    656.600002                    
V 29  23515.313452  14159.235907   5931.166276      0.004011                    
P 30   -519.809470  26506.022002   -121.494256    113.152651                    
V 30  -3160.044600   -194.966162 -31627.239469      0.036434                    
P 31  -7165.685576 -23368.383483  -9822.878939    275.472201                    
V 31   2272.955632 -12775.277626  28785.981112     -0.016985                    
P 32 -11220.591897 -18080.254281  15898.632436      8.060102                    
V 32  18913.718732   7315.158863  21665.678997     -0.020285                    
EOF
